ICOR SV                 
1 68127U 26046A   26072.90953491  .00482503  92133-4  10434-2 0  9997
2 68127 123.0797 224.1306 0140888 188.2572 171.6170 15.82606913   290
FIREFLY ALPHA R/B       
1 68128U 26046B   26072.94001169  .00039664  00000+0  56118-3 0  9991
2 68128 123.0915 223.9275 0013338 343.2777  16.7842 15.56073493   303
GUOWANG GROUP 20 OBJECT*
1 68129U 26047A   26073.00813789 -.00000136  00000+0  95627-5 0  9993
2 68129  50.0050  52.8839 0009099 267.6716  92.3148 14.05944058   170
GUOWANG GROUP 20 OBJECT*
1 68130U 26047B   26073.00804521 -.00000138  00000+0  88217-5 0  9998
2 68130  50.0035  52.8851 0007726 262.4441  97.5587 14.06063671   169
SHIYAN-30 03            
1 68139U 26048A   26072.85704922  .00003700  00000+0  35316-3 0  9991
2 68139  34.9997 119.0887 0005104 309.8672  50.1584 14.92836054   127
SHIYAN-30 04            
1 68140U 26048B   26072.85718273  .00003162  00000+0  30386-3 0  9991
2 68140  34.9910 119.0951 0004110 308.5397  51.4939 14.92621009   122
CZ-2D R/B               
1 68141U 26048C   26072.85547061  .00002263  00000+0  20273-3 0  9992
2 68141  35.1291 119.2480 0015645   0.5171 359.5552 14.95513677   128
